- id: gps-26360
  name: NAVSTAR 47 (USA 150)
  allegiance: friendly
  components:
    - kind: space_orbit
      data:
        line1: "1 26360U 00025A   26087.44599584 -.00000097  00000+0  00000+0 0  9990"
        line2: "2 26360  55.1057  22.5646 0030063 245.7145 275.1053  2.00780322189653"
        fov_half_angle_deg: 5.0
    - kind: symbol
      data:
        sidc_template:
          version: "10"
          context: reality
          standard_identity: friend
          symbol_set: space
          status: present
          hqtfd: not_applicable
          amplifier: unspecified
          entity: code_110700
          modifier_one: code_02
          modifier_two: code_00
